[{"OBJECT_NAME":"STARLINK-31457","OBJECT_ID":"2024-064S","EPOCH":"2026-03-09T06:58:39.895392","MEAN_MOTION":15.27578094,"ECCENTRICITY":0.00013934,"INCLINATION":43.0052,"RA_OF_ASC_NODE":51.5708,"ARG_OF_PERICENTER":275.0947,"MEAN_ANOMALY":84.9746,"EPHEMERIS_TYPE":0,"CLASSIFICATION_TYPE":"U","NORAD_CAT_ID":59414,"ELEMENT_SET_NO":999,"REV_AT_EPOCH":10924,"BSTAR":-1.7400657e-5,"MEAN_MOTION_DOT":-7.41e-6,"MEAN_MOTION_DDOT":0},{"OBJECT_NAME":"CZ-6A DEB","OBJECT_ID":"2024-140NC","EPOCH":"2026-03-09T01:19:44.598720","MEAN_MOTION":14.85954551,"ECCENTRICITY":0.01874643,"INCLINATION":89.0262,"RA_OF_ASC_NODE":281.6645,"ARG_OF_PERICENTER":160.2054,"MEAN_ANOMALY":200.6578,"EPHEMERIS_TYPE":0,"CLASSIFICATION_TYPE":"U","NORAD_CAT_ID":61086,"ELEMENT_SET_NO":999,"REV_AT_EPOCH":8276,"BSTAR":0.00091551765,"MEAN_MOTION_DOT":0.00011041,"MEAN_MOTION_DDOT":0}]
